{
  "type": "FeatureCollection",
  "features": [
    {
      "type": "Feature",
      "properties": {
        "norad_id": 38067,
        "name": "COSMOS 2251 DEB",
        "group": "cosmos-2251-debris",
        "lat": -16.102762684964855,
        "lon": 108.59624805512416,
        "alt_km": 720.8638834356361,
        "timestamp": "2025-12-07T20:38:14.461483+00:00",
        "meta_object_name": "COSMOS 2251 DEB",
        "meta_object_id": "1993-036BRZ",
        "meta_epoch": "2025-11-29T04:46:36.876288",
        "meta_mean_motion": 14.61044936,
        "meta_eccentricity": 0.00691529,
        "meta_inclination": 74.017,
        "meta_ra_of_asc_node": 300.4181,
        "meta_arg_of_pericenter": 91.9303,
        "meta_mean_anomaly": 288.2542,
        "meta_ephemeris_type": 0,
        "meta_classification_type": "U",
        "meta_norad_cat_id": 38067,
        "meta_element_set_no": 999,
        "meta_rev_at_epoch": 62358,
        "meta_bstar": 0.00037425936,
        "meta_mean_motion_dot": 1.87e-05,
        "meta_mean_motion_ddot": 0,
        "tle_line1": "1 38067U 93036BRZ 25333.19903792  .00001870  00000+0  37426-3 0  9991",
        "tle_line2": "2 38067  74.0170 300.4181 0069152  91.9303 288.2542 14.61044936623583"
      },
      "geometry": {
        "type": "Point",
        "coordinates": [
          108.59624805512416,
          -16.102762684964855
        ]
      }
    },
    {
      "type": "Feature",
      "properties": {
        "norad_id": 38068,
        "name": "COSMOS 2251 DEB",
        "group": "cosmos-2251-debris",
        "lat": 38.95419264785041,
        "lon": -29.39320700593325,
        "alt_km": 751.3917358484459,
        "timestamp": "2025-12-07T20:38:14.461492+00:00",
        "meta_object_name": "COSMOS 2251 DEB",
        "meta_object_id": "1993-036BSA",
        "meta_epoch": "2025-11-26T00:12:22.263264",
        "meta_mean_motion": 14.35960004,
        "meta_eccentricity": 0.00240903,
        "meta_inclination": 74.0219,
        "meta_ra_of_asc_node": 338.9788,
        "meta_arg_of_pericenter": 72.1007,
        "meta_mean_anomaly": 288.2769,
        "meta_ephemeris_type": 0,
        "meta_classification_type": "U",
        "meta_norad_cat_id": 38068,
        "meta_element_set_no": 999,
        "meta_rev_at_epoch": 66406,
        "meta_bstar": 0.00028750999,
        "meta_mean_motion_dot": 8.11e-06,
        "meta_mean_motion_ddot": 0,
        "tle_line1": "1 38068U 93036BSA 25330.00859101  .00000811  00000+0  28751-3 0  9998",
        "tle_line2": "2 38068  74.0219 338.9788 0024090  72.1007 288.2769 14.35960004664064"
      },
      "geometry": {
        "type": "Point",
        "coordinates": [
          -29.39320700593325,
          38.95419264785041
        ]
      }
    },
    {
      "type": "Feature",
      "properties": {
        "norad_id": 38197,
        "name": "COSMOS 2251 DEB",
        "group": "cosmos-2251-debris",
        "lat": 73.389241085157,
        "lon": 81.6055310496768,
        "alt_km": 726.0701271398402,
        "timestamp": "2025-12-07T20:38:14.461502+00:00",
        "meta_object_name": "COSMOS 2251 DEB",
        "meta_object_id": "1993-036BSM",
        "meta_epoch": "2025-12-06T08:23:38.720544",
        "meta_mean_motion": 14.73443974,
        "meta_eccentricity": 0.01278233,
        "meta_inclination": 73.9374,
        "meta_ra_of_asc_node": 9.5906,
        "meta_arg_of_pericenter": 248.6573,
        "meta_mean_anomaly": 110.0918,
        "meta_ephemeris_type": 0,
        "meta_classification_type": "U",
        "meta_norad_cat_id": 38197,
        "meta_element_set_no": 999,
        "meta_rev_at_epoch": 85661,
        "meta_bstar": 0.0077538955,
        "meta_mean_motion_dot": 0.00057752,
        "meta_mean_motion_ddot": 0,
        "tle_line1": "1 38197U 93036BSM 25340.34975371  .00057752  00000+0  77539-2 0  9990",
        "tle_line2": "2 38197  73.9374   9.5906 0127823 248.6573 110.0918 14.73443974856612"
      },
      "geometry": {
        "type": "Point",
        "coordinates": [
          81.6055310496768,
          73.389241085157
        ]
      }
    },
    {
      "type": "Feature",
      "properties": {
        "norad_id": 38199,
        "name": "COSMOS 2251 DEB",
        "group": "cosmos-2251-debris",
        "lat": -11.016474212812138,
        "lon": 66.99500486764428,
        "alt_km": 752.0962930457199,
        "timestamp": "2025-12-07T20:38:14.461512+00:00",
        "meta_object_name": "COSMOS 2251 DEB",
        "meta_object_id": "1993-036BSP",
        "meta_epoch": "2025-12-06T21:49:14.439360",
        "meta_mean_motion": 13.64783604,
        "meta_eccentricity": 0.03693827,
        "meta_inclination": 73.9557,
        "meta_ra_of_asc_node": 71.7677,
        "meta_arg_of_pericenter": 359.4298,
        "meta_mean_anomaly": 0.6342,
        "meta_ephemeris_type": 0,
        "meta_classification_type": "U",
        "meta_norad_cat_id": 38199,
        "meta_element_set_no": 999,
        "meta_rev_at_epoch": 60942,
        "meta_bstar": 0.00070508204,
        "meta_mean_motion_dot": 8.82e-06,
        "meta_mean_motion_ddot": 0,
        "tle_line1": "1 38199U 93036BSP 25340.90919490  .00000882  00000+0  70508-3 0  9996",
        "tle_line2": "2 38199  73.9557  71.7677 0369382 359.4298   0.6342 13.64783604609422"
      },
      "geometry": {
        "type": "Point",
        "coordinates": [
          66.99500486764428,
          -11.016474212812138
        ]
      }
    },
    {
      "type": "Feature",
      "properties": {
        "norad_id": 38208,
        "name": "COSMOS 2251 DEB",
        "group": "cosmos-2251-debris",
        "lat": -39.56512564417779,
        "lon": -77.6926514189261,
        "alt_km": 622.5704657971655,
        "timestamp": "2025-12-07T20:38:14.461522+00:00",
        "meta_object_name": "COSMOS 2251 DEB",
        "meta_object_id": "1993-036BSY",
        "meta_epoch": "2025-12-05T14:19:12.971424",
        "meta_mean_motion": 14.83431595,
        "meta_eccentricity": 0.00033607,
        "meta_inclination": 74.0074,
        "meta_ra_of_asc_node": 93.0882,
        "meta_arg_of_pericenter": 176.5145,
        "meta_mean_anomaly": 202.8392,
        "meta_ephemeris_type": 0,
        "meta_classification_type": "U",
        "meta_norad_cat_id": 38208,
        "meta_element_set_no": 999,
        "meta_rev_at_epoch": 71053,
        "meta_bstar": 0.0048604025,
        "meta_mean_motion_dot": 0.00040129,
        "meta_mean_motion_ddot": 0,
        "tle_line1": "1 38208U 93036BSY 25339.59667791  .00040129  00000+0  48604-2 0  9993",
        "tle_line2": "2 38208  74.0074  93.0882 0003360 176.5145 202.8392 14.83431595710531"
      },
      "geometry": {
        "type": "Point",
        "coordinates": [
          -77.6926514189261,
          -39.56512564417779
        ]
      }
    },
    {
      "type": "Feature",
      "properties": {
        "norad_id": 38212,
        "name": "COSMOS 2251 DEB",
        "group": "cosmos-2251-debris",
        "lat": -71.60527306169845,
        "lon": 26.870825846232183,
        "alt_km": 680.4396060133467,
        "timestamp": "2025-12-07T20:38:14.461532+00:00",
        "meta_object_name": "COSMOS 2251 DEB",
        "meta_object_id": "1993-036BTC",
        "meta_epoch": "2025-12-06T01:08:07.179648",
        "meta_mean_motion": 14.77609571,
        "meta_eccentricity": 0.00929618,
        "meta_inclination": 74.0526,
        "meta_ra_of_asc_node": 89.7222,
        "meta_arg_of_pericenter": 158.629,
        "meta_mean_anomaly": 201.8809,
        "meta_ephemeris_type": 0,
        "meta_classification_type": "U",
        "meta_norad_cat_id": 38212,
        "meta_element_set_no": 999,
        "meta_rev_at_epoch": 81211,
        "meta_bstar": 0.00094935233,
        "meta_mean_motion_dot": 7.267e-05,
        "meta_mean_motion_ddot": 0,
        "tle_line1": "1 38212U 93036BTC 25340.04730532  .00007267  00000+0  94935-3 0  9999",
        "tle_line2": "2 38212  74.0526  89.7222 0092961 158.6290 201.8809 14.77609571812118"
      },
      "geometry": {
        "type": "Point",
        "coordinates": [
          26.870825846232183,
          -71.60527306169845
        ]
      }
    },
    {
      "type": "Feature",
      "properties": {
        "norad_id": 38220,
        "name": "COSMOS 2251 DEB",
        "group": "cosmos-2251-debris",
        "lat": 15.730586679829594,
        "lon": -106.51665794410998,
        "alt_km": 590.7045931884222,
        "timestamp": "2025-12-07T20:38:14.461541+00:00",
        "meta_object_name": "COSMOS 2251 DEB",
        "meta_object_id": "1993-036BTL",
        "meta_epoch": "2025-12-06T00:28:04.464768",
        "meta_mean_motion": 14.92263375,
        "meta_eccentricity": 0.00038963,
        "meta_inclination": 74.0153,
        "meta_ra_of_asc_node": 81.8134,
        "meta_arg_of_pericenter": 78.0872,
        "meta_mean_anomaly": 282.0747,
        "meta_ephemeris_type": 0,
        "meta_classification_type": "U",
        "meta_norad_cat_id": 38220,
        "meta_element_set_no": 999,
        "meta_rev_at_epoch": 71270,
        "meta_bstar": 0.0049211275,
        "meta_mean_motion_dot": 0.00050569,
        "meta_mean_motion_ddot": 0,
        "tle_line1": "1 38220U 93036BTL 25340.01949612  .00050569  00000+0  49211-2 0  9995",
        "tle_line2": "2 38220  74.0153  81.8134 0003896  78.0872 282.0747 14.92263375712709"
      },
      "geometry": {
        "type": "Point",
        "coordinates": [
          -106.51665794410998,
          15.730586679829594
        ]
      }
    }
  ]
}